CZ-4B R/B               
1 66989U 25289B   26007.45062051  .00135902  78986-5  55113-3 0  9993
2 66989  97.5192  79.7634 0128759 265.3010  93.3539 15.74494113  4609
TJS-22                  
1 66990U 25290A   26007.31198139 -.00000004  00000+0  00000+0 0  9991
2 66990   1.9248 285.0615 0003315 348.0647  12.5174  1.00271799   418
CZ-3B R/B               
1 66991U 25290B   25349.72468800  .00057911 -20514-6  75879-3 0  9998
2 66991  28.4636 300.4666 7240884 182.7002 168.6250  2.38388611   165
2025-292A               
1 66993U 25292A   26007.47747704  .00004449  00000+0  31897-3 0  9999
2 66993  97.6496  84.7762 0015440 180.3465 179.7753 15.04775481  4264
2025-292B               
1 66994U 25292B   26007.47649638  .00004899  00000+0  35012-3 0  9999
2 66994  97.6506  84.7808 0015245 180.6851 179.4357 15.04847690  4262
2025-292C               
1 66995U 25292C   26007.47712428  .00005496  00000+0  39306-3 0  9992
2 66995  97.6496  84.7767 0015440 178.9552 181.1709 15.04767180  4266
2025-292D               
1 66996U 25292D   26007.47607373  .00003937  00000+0  28265-3 0  9995
2 66996  97.6492  84.7764 0014598 182.5105 177.6050 15.04810701  4265
2025-292E               
1 66997U 25292E   26007.47402624  .00004395  00000+0  31371-3 0  9999
2 66997  97.6513  84.7866 0014932 183.7788 176.3328 15.04958710  4251
2025-292F               
1 66998U 25292F   26007.47055941  .00005428  00000+0  38386-3 0  9997
2 66998  97.6531  84.7982 0016078 184.4413 175.6673 15.05190780  4269
2025-292G               
1 66999U 25292G   26007.46935358  .00005436  00000+0  38381-3 0  9990
2 66999  97.6540  84.8030 0015543 186.0952 174.0087 15.05255737  4263
2025-292H               
1 67000U 25292H   26007.46874108  .00006300  00000+0  44309-3 0  9997
2 67000  97.6553  84.8084 0015407 186.1165 173.9876 15.05336432  4138
2025-292J               
1 67001U 25292J   26007.48032681  .00005893  00000+0  42204-3 0  9990
2 67001  97.6528  84.7843 0015837 177.4508 182.6802 15.04680147  4268
