CCSDS_OMM_VERS = 2.0
CREATION_DATE  = 
ORIGINATOR     = 

OBJECT_NAME    = CZ-4B R/B
OBJECT_ID      = 2025-289B
CENTER_NAME    = EARTH
REF_FRAME      = TEME
TIME_SYSTEM    = UTC
MEAN_ELEMENT_THEORY = SGP/SGP4

EPOCH          = 2026-01-07T10:48:53.612064
MEAN_MOTION    = 15.74494113
ECCENTRICITY   = .0128759
INCLINATION    = 97.5192
RA_OF_ASC_NODE = 79.7634
ARG_OF_PERICENTER = 265.3010
MEAN_ANOMALY   = 93.3539

EPHEMERIS_TYPE = 0
CLASSIFICATION_TYPE = U
NORAD_CAT_ID   = 66989
ELEMENT_SET_NO = 999
REV_AT_EPOCH   = 460
BSTAR          = .55113E-3
MEAN_MOTION_DOT = .135902E-2
MEAN_MOTION_DDOT = .78986E-5

CCSDS_OMM_VERS = 2.0
CREATION_DATE  = 
ORIGINATOR     = 

OBJECT_NAME    = TJS-22
OBJECT_ID      = 2025-290A
CENTER_NAME    = EARTH
REF_FRAME      = TEME
TIME_SYSTEM    = UTC
MEAN_ELEMENT_THEORY = SGP/SGP4

EPOCH          = 2026-01-07T07:29:15.192096
MEAN_MOTION    = 1.00271799
ECCENTRICITY   = .0003315
INCLINATION    = 1.9248
RA_OF_ASC_NODE = 285.0615
ARG_OF_PERICENTER = 348.0647
MEAN_ANOMALY   = 12.5174

EPHEMERIS_TYPE = 0
CLASSIFICATION_TYPE = U
NORAD_CAT_ID   = 66990
ELEMENT_SET_NO = 999
REV_AT_EPOCH   = 41
BSTAR          = 0
MEAN_MOTION_DOT = -.4E-7
MEAN_MOTION_DDOT = 0

CCSDS_OMM_VERS = 2.0
CREATION_DATE  = 
ORIGINATOR     = 

OBJECT_NAME    = CZ-3B R/B
OBJECT_ID      = 2025-290B
CENTER_NAME    = EARTH
REF_FRAME      = TEME
TIME_SYSTEM    = UTC
MEAN_ELEMENT_THEORY = SGP/SGP4

EPOCH          = 2025-12-15T17:23:33.043200
MEAN_MOTION    = 2.38388611
ECCENTRICITY   = .7240884
INCLINATION    = 28.4636
RA_OF_ASC_NODE = 300.4666
ARG_OF_PERICENTER = 182.7002
MEAN_ANOMALY   = 168.6250

EPHEMERIS_TYPE = 0
CLASSIFICATION_TYPE = U
NORAD_CAT_ID   = 66991
ELEMENT_SET_NO = 999
REV_AT_EPOCH   = 16
BSTAR          = .75879E-3
MEAN_MOTION_DOT = .57911E-3
MEAN_MOTION_DDOT = -.20514E-6

CCSDS_OMM_VERS = 2.0
CREATION_DATE  = 
ORIGINATOR     = 

OBJECT_NAME    = 2025-292A
OBJECT_ID      = 2025-292A
CENTER_NAME    = EARTH
REF_FRAME      = TEME
TIME_SYSTEM    = UTC
MEAN_ELEMENT_THEORY = SGP/SGP4

EPOCH          = 2026-01-07T11:27:34.016256
MEAN_MOTION    = 15.04775481
ECCENTRICITY   = .001544
INCLINATION    = 97.6496
RA_OF_ASC_NODE = 84.7762
ARG_OF_PERICENTER = 180.3465
MEAN_ANOMALY   = 179.7753

EPHEMERIS_TYPE = 0
CLASSIFICATION_TYPE = U
NORAD_CAT_ID   = 66993
ELEMENT_SET_NO = 999
REV_AT_EPOCH   = 426
BSTAR          = .31897E-3
MEAN_MOTION_DOT = .4449E-4
MEAN_MOTION_DDOT = 0

CCSDS_OMM_VERS = 2.0
CREATION_DATE  = 
ORIGINATOR     = 

OBJECT_NAME    = THE ARAB SATELLITE 813
OBJECT_ID      = 2025-292B
CENTER_NAME    = EARTH
REF_FRAME      = TEME
TIME_SYSTEM    = UTC
MEAN_ELEMENT_THEORY = SGP/SGP4

EPOCH          = 2026-01-07T11:26:09.287232
MEAN_MOTION    = 15.04847690
ECCENTRICITY   = .0015245
INCLINATION    = 97.6506
RA_OF_ASC_NODE = 84.7808
ARG_OF_PERICENTER = 180.6851
MEAN_ANOMALY   = 179.4357

EPHEMERIS_TYPE = 0
CLASSIFICATION_TYPE = U
NORAD_CAT_ID   = 66994
ELEMENT_SET_NO = 999
REV_AT_EPOCH   = 426
BSTAR          = .35012E-3
MEAN_MOTION_DOT = .4899E-4
MEAN_MOTION_DDOT = 0

CCSDS_OMM_VERS = 2.0
CREATION_DATE  = 
ORIGINATOR     = 

OBJECT_NAME    = 2025-292C
OBJECT_ID      = 2025-292C
CENTER_NAME    = EARTH
REF_FRAME      = TEME
TIME_SYSTEM    = UTC
MEAN_ELEMENT_THEORY = SGP/SGP4

EPOCH          = 2026-01-07T11:27:03.537792
MEAN_MOTION    = 15.04767180
ECCENTRICITY   = .001544
INCLINATION    = 97.6496
RA_OF_ASC_NODE = 84.7767
ARG_OF_PERICENTER = 178.9552
MEAN_ANOMALY   = 181.1709

EPHEMERIS_TYPE = 0
CLASSIFICATION_TYPE = U
NORAD_CAT_ID   = 66995
ELEMENT_SET_NO = 999
REV_AT_EPOCH   = 426
BSTAR          = .39306E-3
MEAN_MOTION_DOT = .5496E-4
MEAN_MOTION_DDOT = 0

CCSDS_OMM_VERS = 2.0
CREATION_DATE  = 
ORIGINATOR     = 

OBJECT_NAME    = 2025-292D
OBJECT_ID      = 2025-292D
CENTER_NAME    = EARTH
REF_FRAME      = TEME
TIME_SYSTEM    = UTC
MEAN_ELEMENT_THEORY = SGP/SGP4

EPOCH          = 2026-01-07T11:25:32.770272
MEAN_MOTION    = 15.04810701
ECCENTRICITY   = .0014598
INCLINATION    = 97.6492
RA_OF_ASC_NODE = 84.7764
ARG_OF_PERICENTER = 182.5105
MEAN_ANOMALY   = 177.6050

EPHEMERIS_TYPE = 0
CLASSIFICATION_TYPE = U
NORAD_CAT_ID   = 66996
ELEMENT_SET_NO = 999
REV_AT_EPOCH   = 426
BSTAR          = .28265E-3
MEAN_MOTION_DOT = .3937E-4
MEAN_MOTION_DDOT = 0

CCSDS_OMM_VERS = 2.0
CREATION_DATE  = 
ORIGINATOR     = 

OBJECT_NAME    = 2025-292E
OBJECT_ID      = 2025-292E
CENTER_NAME    = EARTH
REF_FRAME      = TEME
TIME_SYSTEM    = UTC
MEAN_ELEMENT_THEORY = SGP/SGP4

EPOCH          = 2026-01-07T11:22:35.867136
MEAN_MOTION    = 15.04958710
ECCENTRICITY   = .0014932
INCLINATION    = 97.6513
RA_OF_ASC_NODE = 84.7866
ARG_OF_PERICENTER = 183.7788
MEAN_ANOMALY   = 176.3328

EPHEMERIS_TYPE = 0
CLASSIFICATION_TYPE = U
NORAD_CAT_ID   = 66997
ELEMENT_SET_NO = 999
REV_AT_EPOCH   = 425
BSTAR          = .31371E-3
MEAN_MOTION_DOT = .4395E-4
MEAN_MOTION_DDOT = 0

CCSDS_OMM_VERS = 2.0
CREATION_DATE  = 
ORIGINATOR     = 

OBJECT_NAME    = 2025-292F
OBJECT_ID      = 2025-292F
CENTER_NAME    = EARTH
REF_FRAME      = TEME
TIME_SYSTEM    = UTC
MEAN_ELEMENT_THEORY = SGP/SGP4

EPOCH          = 2026-01-07T11:17:36.333024
MEAN_MOTION    = 15.05190780
ECCENTRICITY   = .0016078
INCLINATION    = 97.6531
RA_OF_ASC_NODE = 84.7982
ARG_OF_PERICENTER = 184.4413
MEAN_ANOMALY   = 175.6673

EPHEMERIS_TYPE = 0
CLASSIFICATION_TYPE = U
NORAD_CAT_ID   = 66998
ELEMENT_SET_NO = 999
REV_AT_EPOCH   = 426
BSTAR          = .38386E-3
MEAN_MOTION_DOT = .5428E-4
MEAN_MOTION_DDOT = 0

CCSDS_OMM_VERS = 2.0
CREATION_DATE  = 
ORIGINATOR     = 

OBJECT_NAME    = 2025-292G
OBJECT_ID      = 2025-292G
CENTER_NAME    = EARTH
REF_FRAME      = TEME
TIME_SYSTEM    = UTC
MEAN_ELEMENT_THEORY = SGP/SGP4

EPOCH          = 2026-01-07T11:15:52.149312
MEAN_MOTION    = 15.05255737
ECCENTRICITY   = .0015543
INCLINATION    = 97.6540
RA_OF_ASC_NODE = 84.8030
ARG_OF_PERICENTER = 186.0952
MEAN_ANOMALY   = 174.0087

EPHEMERIS_TYPE = 0
CLASSIFICATION_TYPE = U
NORAD_CAT_ID   = 66999
ELEMENT_SET_NO = 999
REV_AT_EPOCH   = 426
BSTAR          = .38381E-3
MEAN_MOTION_DOT = .5436E-4
MEAN_MOTION_DDOT = 0

CCSDS_OMM_VERS = 2.0
CREATION_DATE  = 
ORIGINATOR     = 

OBJECT_NAME    = 2025-292H
OBJECT_ID      = 2025-292H
CENTER_NAME    = EARTH
REF_FRAME      = TEME
TIME_SYSTEM    = UTC
MEAN_ELEMENT_THEORY = SGP/SGP4

EPOCH          = 2026-01-07T11:14:59.229312
MEAN_MOTION    = 15.05336432
ECCENTRICITY   = .0015407
INCLINATION    = 97.6553
RA_OF_ASC_NODE = 84.8084
ARG_OF_PERICENTER = 186.1165
MEAN_ANOMALY   = 173.9876

EPHEMERIS_TYPE = 0
CLASSIFICATION_TYPE = U
NORAD_CAT_ID   = 67000
ELEMENT_SET_NO = 999
REV_AT_EPOCH   = 413
BSTAR          = .44309E-3
MEAN_MOTION_DOT = .63E-4
MEAN_MOTION_DDOT = 0

CCSDS_OMM_VERS = 2.0
CREATION_DATE  = 
ORIGINATOR     = 

OBJECT_NAME    = 2025-292J
OBJECT_ID      = 2025-292J
CENTER_NAME    = EARTH
REF_FRAME      = TEME
TIME_SYSTEM    = UTC
MEAN_ELEMENT_THEORY = SGP/SGP4

EPOCH          = 2026-01-07T11:31:40.236384
MEAN_MOTION    = 15.04680147
ECCENTRICITY   = .0015837
INCLINATION    = 97.6528
RA_OF_ASC_NODE = 84.7843
ARG_OF_PERICENTER = 177.4508
MEAN_ANOMALY   = 182.6802

EPHEMERIS_TYPE = 0
CLASSIFICATION_TYPE = U
NORAD_CAT_ID   = 67001
ELEMENT_SET_NO = 999
REV_AT_EPOCH   = 426
BSTAR          = .42204E-3
MEAN_MOTION_DOT = .5893E-4
MEAN_MOTION_DDOT = 0

